[
    {
        "Altitude(m)": 610405.3285773632,
        "Argument of Periapsis(deg)": 0.0,
        "Eccentricity": 0.0,
        "Inclination(deg)": 60.0,
        "Latitude(deg)": 52.111286874311055,
        "Longitude(deg)": 32.47730562874516,
        "Mean Anomaly(deg)": 114.5455,
        "RAAN(deg)": 0.0,
        "Satellite Name": "Test1 7",
        "Satellite Number": 7,
        "Semi-Major Axis(m)": 6980739.136638005,
        "Time(s)": 0
    },
    {
        "Altitude(m)": 610321.9020010949,
        "Argument of Periapsis(deg)": 0.00010418945913296404,
        "Eccentricity": 0.0,
        "Inclination(deg)": 60.0,
        "Latitude(deg)": 51.74600302854004,
        "Longitude(deg)": 33.24620118999669,
        "Mean Anomaly(deg)": 115.16560614546184,
        "RAAN(deg)": -0.0004200491397426661,
        "Satellite Name": "Test1 7",
        "Satellite Number": 7,
        "Semi-Major Axis(m)": 6980739.136638005,
        "Time(s)": 10
    }
]